{"type":"FeatureCollection","name":"fictional_practice_not_real_boundaries","features":[{"type":"Feature","properties":{"name":"North / Norte","books":24,"fictional":true},"geometry":{"type":"Polygon","coordinates":[[[0,0],[0.5,0.02],[1,0],[1.02,0.5],[1,1],[0.5,1.02],[0,1],[-0.02,0.5],[0,0]]]}},{"type":"Feature","properties":{"name":"East / Este","books":18,"fictional":true},"geometry":{"type":"Polygon","coordinates":[[[1,0],[1.5,0.02],[2,0],[2.02,0.5],[2,1],[1.5,1.02],[1,1],[1.02,0.5],[1,0]]]}},{"type":"Feature","properties":{"name":"South / Sur","books":30,"fictional":true},"geometry":{"type":"Polygon","coordinates":[[[0,-1],[0.5,-0.98],[1,-1],[1.02,-0.5],[1,0],[0.5,0.02],[0,0],[-0.02,-0.5],[0,-1]]]}}]}
